ORBCOMM FM01 [-]        
1 23545U 95017A   23266.21185595  .00005817  00000+0  84380-3 0  9992
2 23545  69.9688 193.8690 0006811 223.1187 136.9428 14.76496863518699
ORBCOMM FM02 [-]        
1 23546U 95017B   23266.24255970  .00008642  00000+0  12634-2 0  9992
2 23546  69.9703 212.7911 0008093 212.6847 147.3800 14.75957497518352
ORBCOMM FM08 [-]        
1 25112U 97084A   23266.08564730  .00002272  00000+0  74013-3 0  9991
2 25112  45.0140 155.1893 0007823 300.2285  59.7790 14.41249120349909
ORBCOMM FM10 [-]        
1 25113U 97084B   23266.01206864  .00002014  00000+0  66214-3 0  9994
2 25113  45.0152 157.2466 0005078 274.5706  85.4563 14.41196286525042
ORBCOMM FM11 [+]        
1 25114U 97084C   23266.01247109  .00002059  00000+0  67748-3 0  9994
2 25114  45.0136 157.1391 0005813 273.9347  86.0838 14.41079126350010
ORBCOMM FM12 [-]        
1 25115U 97084D   23266.10717641  .00002009  00000+0  66206-3 0  9991
2 25115  45.0148 156.3268 0004887 277.2898  82.7396 14.41073965349820
ORBCOMM FM09 [-]        
1 25116U 97084E   23266.04441229  .00002053  00000+0  67587-3 0  9993
2 25116  45.0148 157.2548 0005735 258.4108 101.6098 14.41054658350022
